KONDOR-FKA NO. 1        
1 56756U 23074A   26066.42573583  .00007463  00000+0  35188-3 0  9999
2 56756  97.4394 262.4533 0001730  84.6258 275.5174 15.19772289154233
PHI 1                   
1 66775U 25276DP  26068.73555710  .00008281  00000+0  38774-3 0  9998
2 66775  97.4203 144.0831 0002962 121.0034 239.1492 15.19973113 15331
